[
  {
    "CLUB_NBR": "6,521",
    "CITY_NAME": "HOUMA",
    "STATE_PROV_CODE": "LA",
    "POSTAL_CODE": 70360,
    "LATITUDE_DGR": 29.632481,
    "LONGITUDE_DGR": -90.7615,
    "flag": 4.06795302,
    "Reg": 15,
    "Market": 8,
    "ty_fresh_sales": 4849,
    "ly_fresh_sales": 1192
  },
  {
    "CLUB_NBR": "6,680",
    "CITY_NAME": "BAYAMON",
    "STATE_PROV_CODE": "PR",
    "POSTAL_CODE": 961,
    "LATITUDE_DGR": 18.411224,
    "LONGITUDE_DGR": -66.162658,
    "flag": 0.936599424,
    "Reg": 15,
    "Market": 7,
    "ty_fresh_sales": 1950,
    "ly_fresh_sales": 2082
  },
  {
    "CLUB_NBR": "6,463",
    "CITY_NAME": "ANDERSON",
    "STATE_PROV_CODE": "SC",
    "POSTAL_CODE": 29621,
    "LATITUDE_DGR": 34.556827,
    "LONGITUDE_DGR": -82.677696,
    "flag": 1.309967585,
    "Reg": 20,
    "Market": 9,
    "ty_fresh_sales": 3233,
    "ly_fresh_sales": 2468
  },
  {
    "CLUB_NBR": "8,196",
    "CITY_NAME": "FLORENCE",
    "STATE_PROV_CODE": "AL",
    "POSTAL_CODE": 35630,
    "LATITUDE_DGR": 34.84102,
    "LONGITUDE_DGR": -87.632978,
    "flag": 3.154589372,
    "Reg": 19,
    "Market": 9,
    "ty_fresh_sales": 3265,
    "ly_fresh_sales": 1035
  },
  {
    "CLUB_NBR": "6,526",
    "CITY_NAME": "JAMESTOWN",
    "STATE_PROV_CODE": "NY",
    "POSTAL_CODE": 14701,
    "LATITUDE_DGR": 42.0971,
    "LONGITUDE_DGR": -79.2808,
    "flag": 0.443538999,
    "Reg": 11,
    "Market": 8,
    "ty_fresh_sales": 1905,
    "ly_fresh_sales": 4295
  },
  {
    "CLUB_NBR": "4,740",
    "CITY_NAME": "SOUTHAVEN",
    "STATE_PROV_CODE": "MS",
    "POSTAL_CODE": 38671,
    "LATITUDE_DGR": 34.959671,
    "LONGITUDE_DGR": -89.982289,
    "flag": 0.971944969,
    "Reg": 16,
    "Market": 16,
    "ty_fresh_sales": 3603,
    "ly_fresh_sales": 3707
  },
  {
    "CLUB_NBR": "6,615",
    "CITY_NAME": "FOUNTAIN VALLEY",
    "STATE_PROV_CODE": "CA",
    "POSTAL_CODE": 92708,
    "LATITUDE_DGR": 33.714682,
    "LONGITUDE_DGR": -117.954108,
    "flag": 1.422826087,
    "Reg": 16,
    "Market": 14,
    "ty_fresh_sales": 2618,
    "ly_fresh_sales": 1840
  },
  {
    "CLUB_NBR": "4,812",
    "CITY_NAME": "FARMINGTON HILLS",
    "STATE_PROV_CODE": "MI",
    "POSTAL_CODE": 48334,
    "LATITUDE_DGR": 42.528637,
    "LONGITUDE_DGR": -83.358717,
    "flag": 2.58518931,
    "Reg": 10,
    "Market": 10,
    "ty_fresh_sales": 4643,
    "ly_fresh_sales": 1796
  },
  {
    "CLUB_NBR": "6,671",
    "CITY_NAME": "FREEHOLD",
    "STATE_PROV_CODE": "NJ",
    "POSTAL_CODE": 7728,
    "LATITUDE_DGR": 40.240852,
    "LONGITUDE_DGR": -74.292632,
    "flag": 1.167322835,
    "Reg": 18,
    "Market": 17,
    "ty_fresh_sales": 2372,
    "ly_fresh_sales": 2032
  },
  {
    "CLUB_NBR": "8,250",
    "CITY_NAME": "MCALLEN",
    "STATE_PROV_CODE": "TX",
    "POSTAL_CODE": 78503,
    "LATITUDE_DGR": 26.188391,
    "LONGITUDE_DGR": -98.207698,
    "flag": 0.756564551,
    "Reg": 1,
    "Market": 16,
    "ty_fresh_sales": 2766,
    "ly_fresh_sales": 3656
  },
  {
    "CLUB_NBR": "6,415",
    "CITY_NAME": "JOPLIN",
    "STATE_PROV_CODE": "MO",
    "POSTAL_CODE": 64804,
    "LATITUDE_DGR": 37.051014,
    "LONGITUDE_DGR": -94.475162,
    "flag": 1.013238916,
    "Reg": 5,
    "Market": 11,
    "ty_fresh_sales": 3291,
    "ly_fresh_sales": 3248
  },
  {
    "CLUB_NBR": "6,247",
    "CITY_NAME": "KANSAS CITY",
    "STATE_PROV_CODE": "MO",
    "POSTAL_CODE": 64158,
    "LATITUDE_DGR": 39.240529,
    "LONGITUDE_DGR": -94.464281,
    "flag": 0.681654676,
    "Reg": 5,
    "Market": 20,
    "ty_fresh_sales": 2274,
    "ly_fresh_sales": 3336
  },
  {
    "CLUB_NBR": "6,650",
    "CITY_NAME": "BALTIMORE ROSEDALE",
    "STATE_PROV_CODE": "MD",
    "POSTAL_CODE": 21237,
    "LATITUDE_DGR": 39.3365,
    "LONGITUDE_DGR": -76.4867,
    "flag": 2.923728814,
    "Reg": 17,
    "Market": 8,
    "ty_fresh_sales": 4830,
    "ly_fresh_sales": 1652
  },
  {
    "CLUB_NBR": "4,905",
    "CITY_NAME": "DENTON",
    "STATE_PROV_CODE": "TX",
    "POSTAL_CODE": 76201,
    "LATITUDE_DGR": 33.232926,
    "LONGITUDE_DGR": -97.17021,
    "flag": 0.704109589,
    "Reg": 20,
    "Market": 4,
    "ty_fresh_sales": 2570,
    "ly_fresh_sales": 3650
  },
  {
    "CLUB_NBR": "6,416",
    "CITY_NAME": "SAN ANTONIO",
    "STATE_PROV_CODE": "TX",
    "POSTAL_CODE": 78216,
    "LATITUDE_DGR": 29.559095,
    "LONGITUDE_DGR": -98.486989,
    "flag": 0.40356881,
    "Reg": 7,
    "Market": 11,
    "ty_fresh_sales": 1651,
    "ly_fresh_sales": 4091
  },
  {
    "CLUB_NBR": "6,352",
    "CITY_NAME": "HUDSON",
    "STATE_PROV_CODE": "NH",
    "POSTAL_CODE": 3051,
    "LATITUDE_DGR": 42.726502,
    "LONGITUDE_DGR": -71.427156,
    "flag": 2.642458101,
    "Reg": 14,
    "Market": 19,
    "ty_fresh_sales": 3311,
    "ly_fresh_sales": 1253
  },
  {
    "CLUB_NBR": "4,835",
    "CITY_NAME": "RENTON",
    "STATE_PROV_CODE": "WA",
    "POSTAL_CODE": 98057,
    "LATITUDE_DGR": 47.4729,
    "LONGITUDE_DGR": -122.206,
    "flag": 1.742741391,
    "Reg": 14,
    "Market": 7,
    "ty_fresh_sales": 2581,
    "ly_fresh_sales": 1481
  },
  {
    "CLUB_NBR": "6,237",
    "CITY_NAME": "ROMEOVILLE",
    "STATE_PROV_CODE": "IL",
    "POSTAL_CODE": 60446,
    "LATITUDE_DGR": 41.608398,
    "LONGITUDE_DGR": -88.121134,
    "flag": 0.281690141,
    "Reg": 18,
    "Market": 15,
    "ty_fresh_sales": 1060,
    "ly_fresh_sales": 3763
  },
  {
    "CLUB_NBR": "6,351",
    "CITY_NAME": "NEWPORT NEWS",
    "STATE_PROV_CODE": "VA",
    "POSTAL_CODE": 23602,
    "LATITUDE_DGR": 37.11972,
    "LONGITUDE_DGR": -76.509551,
    "flag": 0.557154277,
    "Reg": 3,
    "Market": 17,
    "ty_fresh_sales": 2091,
    "ly_fresh_sales": 3753
  },
  {
    "CLUB_NBR": "6,620",
    "CITY_NAME": "FOLSOM",
    "STATE_PROV_CODE": "CA",
    "POSTAL_CODE": 95630,
    "LATITUDE_DGR": 38.644904,
    "LONGITUDE_DGR": -121.117892,
    "flag": 1.763237193,
    "Reg": 7,
    "Market": 13,
    "ty_fresh_sales": 4096,
    "ly_fresh_sales": 2323
  },
  {
    "CLUB_NBR": "4,817",
    "CITY_NAME": "BIRMINGHAM",
    "STATE_PROV_CODE": "AL",
    "POSTAL_CODE": 35235,
    "LATITUDE_DGR": 33.637076,
    "LONGITUDE_DGR": -86.628931,
    "flag": 0.813182811,
    "Reg": 5,
    "Market": 19,
    "ty_fresh_sales": 2233,
    "ly_fresh_sales": 2746
  },
  {
    "CLUB_NBR": "6,518",
    "CITY_NAME": "BRISTOL",
    "STATE_PROV_CODE": "VA",
    "POSTAL_CODE": 24202,
    "LATITUDE_DGR": 36.636054,
    "LONGITUDE_DGR": -82.125964,
    "flag": 2.191111111,
    "Reg": 9,
    "Market": 1,
    "ty_fresh_sales": 4437,
    "ly_fresh_sales": 2025
  },
  {
    "CLUB_NBR": "8,177",
    "CITY_NAME": "LAS VEGAS",
    "STATE_PROV_CODE": "NV",
    "POSTAL_CODE": 89120,
    "LATITUDE_DGR": 36.096517,
    "LONGITUDE_DGR": -115.102621,
    "flag": 1.117720259,
    "Reg": 20,
    "Market": 4,
    "ty_fresh_sales": 4491,
    "ly_fresh_sales": 4018
  },
  {
    "CLUB_NBR": "8,162",
    "CITY_NAME": "CEDAR RAPIDS",
    "STATE_PROV_CODE": "IA",
    "POSTAL_CODE": 52402,
    "LATITUDE_DGR": 42.031973,
    "LONGITUDE_DGR": -91.679714,
    "flag": 0.767500574,
    "Reg": 3,
    "Market": 16,
    "ty_fresh_sales": 3344,
    "ly_fresh_sales": 4357
  },
  {
    "CLUB_NBR": "6,303",
    "CITY_NAME": "WEST ALLIS",
    "STATE_PROV_CODE": "WI",
    "POSTAL_CODE": 53214,
    "LATITUDE_DGR": 43.015194,
    "LONGITUDE_DGR": -88.046569,
    "flag": 0.987964096,
    "Reg": 18,
    "Market": 3,
    "ty_fresh_sales": 4843,
    "ly_fresh_sales": 4902
  },
  {
    "CLUB_NBR": "4,763",
    "CITY_NAME": "SUGAR LAND",
    "STATE_PROV_CODE": "TX",
    "POSTAL_CODE": 77478,
    "LATITUDE_DGR": 29.612831,
    "LONGITUDE_DGR": -95.649065,
    "flag": 2.705827937,
    "Reg": 7,
    "Market": 19,
    "ty_fresh_sales": 2925,
    "ly_fresh_sales": 1081
  },
  {
    "CLUB_NBR": "4,711",
    "CITY_NAME": "VIRGINIA BEACH",
    "STATE_PROV_CODE": "VA",
    "POSTAL_CODE": 23452,
    "LATITUDE_DGR": 36.840007,
    "LONGITUDE_DGR": -76.088576,
    "flag": 3.943598926,
    "Reg": 8,
    "Market": 12,
    "ty_fresh_sales": 4405,
    "ly_fresh_sales": 1117
  },
  {
    "CLUB_NBR": "6,368",
    "CITY_NAME": "CHESAPEAKE",
    "STATE_PROV_CODE": "VA",
    "POSTAL_CODE": 23320,
    "LATITUDE_DGR": 36.770142,
    "LONGITUDE_DGR": -76.24781,
    "flag": 0.418938307,
    "Reg": 19,
    "Market": 10,
    "ty_fresh_sales": 1752,
    "ly_fresh_sales": 4182
  },
  {
    "CLUB_NBR": "6,454",
    "CITY_NAME": "SOUTHFIELD",
    "STATE_PROV_CODE": "MI",
    "POSTAL_CODE": 48033,
    "LATITUDE_DGR": 42.4437,
    "LONGITUDE_DGR": -83.2637,
    "flag": 0.976476476,
    "Reg": 11,
    "Market": 14,
    "ty_fresh_sales": 3902,
    "ly_fresh_sales": 3996
  },
  {
    "CLUB_NBR": "8,126",
    "CITY_NAME": "BROWNSVILLE",
    "STATE_PROV_CODE": "TX",
    "POSTAL_CODE": 78520,
    "LATITUDE_DGR": 25.975413,
    "LONGITUDE_DGR": -97.518309,
    "flag": 0.547320657,
    "Reg": 20,
    "Market": 4,
    "ty_fresh_sales": 2533,
    "ly_fresh_sales": 4628
  },
  {
    "CLUB_NBR": "6,644",
    "CITY_NAME": "OAKWOOD",
    "STATE_PROV_CODE": "GA",
    "POSTAL_CODE": 30566,
    "LATITUDE_DGR": 34.2303,
    "LONGITUDE_DGR": -83.8739,
    "flag": 0.628440367,
    "Reg": 18,
    "Market": 2,
    "ty_fresh_sales": 2329,
    "ly_fresh_sales": 3706
  },
  {
    "CLUB_NBR": "6,624",
    "CITY_NAME": "SAN BERNARDINO",
    "STATE_PROV_CODE": "CA",
    "POSTAL_CODE": 92408,
    "LATITUDE_DGR": 34.065353,
    "LONGITUDE_DGR": -117.262548,
    "flag": 1.963058976,
    "Reg": 19,
    "Market": 17,
    "ty_fresh_sales": 3029,
    "ly_fresh_sales": 1543
  },
  {
    "CLUB_NBR": "6,259",
    "CITY_NAME": "ROUND ROCK",
    "STATE_PROV_CODE": "TX",
    "POSTAL_CODE": 78681,
    "LATITUDE_DGR": 30.4853,
    "LONGITUDE_DGR": -97.681,
    "flag": 1.667668044,
    "Reg": 2,
    "Market": 15,
    "ty_fresh_sales": 4441,
    "ly_fresh_sales": 2663
  },
  {
    "CLUB_NBR": "6,505",
    "CITY_NAME": "JEFFERSON CITY",
    "STATE_PROV_CODE": "MO",
    "POSTAL_CODE": 65109,
    "LATITUDE_DGR": 38.577637,
    "LONGITUDE_DGR": -92.222917,
    "flag": 3.063235294,
    "Reg": 1,
    "Market": 15,
    "ty_fresh_sales": 4166,
    "ly_fresh_sales": 1360
  },
  {
    "CLUB_NBR": "4,876",
    "CITY_NAME": "BOWLING GREEN",
    "STATE_PROV_CODE": "KY",
    "POSTAL_CODE": 42103,
    "LATITUDE_DGR": 36.941114,
    "LONGITUDE_DGR": -86.415979,
    "flag": 2.486349848,
    "Reg": 8,
    "Market": 17,
    "ty_fresh_sales": 4918,
    "ly_fresh_sales": 1978
  },
  {
    "CLUB_NBR": "8,263",
    "CITY_NAME": "TULSA",
    "STATE_PROV_CODE": "OK",
    "POSTAL_CODE": 74145,
    "LATITUDE_DGR": 36.099704,
    "LONGITUDE_DGR": -95.906553,
    "flag": 1.294569067,
    "Reg": 10,
    "Market": 11,
    "ty_fresh_sales": 2193,
    "ly_fresh_sales": 1694
  },
  {
    "CLUB_NBR": "6,383",
    "CITY_NAME": "SALISBURY",
    "STATE_PROV_CODE": "MD",
    "POSTAL_CODE": 21801,
    "LATITUDE_DGR": 38.415806,
    "LONGITUDE_DGR": -75.569753,
    "flag": 0.337962018,
    "Reg": 20,
    "Market": 3,
    "ty_fresh_sales": 1655,
    "ly_fresh_sales": 4897
  },
  {
    "CLUB_NBR": "8,168",
    "CITY_NAME": "INDIANAPOLIS",
    "STATE_PROV_CODE": "IN",
    "POSTAL_CODE": 46250,
    "LATITUDE_DGR": 39.924232,
    "LONGITUDE_DGR": -86.040607,
    "flag": 1.704985119,
    "Reg": 18,
    "Market": 11,
    "ty_fresh_sales": 4583,
    "ly_fresh_sales": 2688
  },
  {
    "CLUB_NBR": "6,684",
    "CITY_NAME": "RIVERDALE",
    "STATE_PROV_CODE": "UT",
    "POSTAL_CODE": 84405,
    "LATITUDE_DGR": 41.1732,
    "LONGITUDE_DGR": -112.001,
    "flag": 0.526701003,
    "Reg": 19,
    "Market": 18,
    "ty_fresh_sales": 1943,
    "ly_fresh_sales": 3689
  },
  {
    "CLUB_NBR": "6,462",
    "CITY_NAME": "AUGUSTA",
    "STATE_PROV_CODE": "ME",
    "POSTAL_CODE": 4330,
    "LATITUDE_DGR": 44.342761,
    "LONGITUDE_DGR": -69.78595,
    "flag": 0.3125,
    "Reg": 8,
    "Market": 10,
    "ty_fresh_sales": 1275,
    "ly_fresh_sales": 4080
  },
  {
    "CLUB_NBR": "8,265",
    "CITY_NAME": "LAKE CHARLES",
    "STATE_PROV_CODE": "LA",
    "POSTAL_CODE": 70601,
    "LATITUDE_DGR": 30.198726,
    "LONGITUDE_DGR": -93.250771,
    "flag": 0.510603589,
    "Reg": 2,
    "Market": 1,
    "ty_fresh_sales": 2191,
    "ly_fresh_sales": 4291
  },
  {
    "CLUB_NBR": "4,790",
    "CITY_NAME": "PEARL",
    "STATE_PROV_CODE": "MS",
    "POSTAL_CODE": 39208,
    "LATITUDE_DGR": 32.2701,
    "LONGITUDE_DGR": -90.1486,
    "flag": 2.781219748,
    "Reg": 11,
    "Market": 17,
    "ty_fresh_sales": 2873,
    "ly_fresh_sales": 1033
  },
  {
    "CLUB_NBR": "8,259",
    "CITY_NAME": "AUSTIN",
    "STATE_PROV_CODE": "TX",
    "POSTAL_CODE": 78748,
    "LATITUDE_DGR": 30.156051,
    "LONGITUDE_DGR": -97.794766,
    "flag": 0.954454119,
    "Reg": 16,
    "Market": 14,
    "ty_fresh_sales": 2850,
    "ly_fresh_sales": 2986
  },
  {
    "CLUB_NBR": "6,328",
    "CITY_NAME": "CICERO",
    "STATE_PROV_CODE": "IL",
    "POSTAL_CODE": 60804,
    "LATITUDE_DGR": 41.842961,
    "LONGITUDE_DGR": -87.741199,
    "flag": 1.465648855,
    "Reg": 3,
    "Market": 16,
    "ty_fresh_sales": 3072,
    "ly_fresh_sales": 2096
  },
  {
    "CLUB_NBR": "4,915",
    "CITY_NAME": "BULLHEAD CITY",
    "STATE_PROV_CODE": "AZ",
    "POSTAL_CODE": 86429,
    "LATITUDE_DGR": 35.166353,
    "LONGITUDE_DGR": -114.563635,
    "flag": 1.955638696,
    "Reg": 16,
    "Market": 2,
    "ty_fresh_sales": 3659,
    "ly_fresh_sales": 1871
  },
  {
    "CLUB_NBR": "4,830",
    "CITY_NAME": "AVONDALE",
    "STATE_PROV_CODE": "AZ",
    "POSTAL_CODE": 85323,
    "LATITUDE_DGR": 33.451482,
    "LONGITUDE_DGR": -112.338501,
    "flag": 0.680493984,
    "Reg": 7,
    "Market": 17,
    "ty_fresh_sales": 2149,
    "ly_fresh_sales": 3158
  },
  {
    "CLUB_NBR": "6,443",
    "CITY_NAME": "GOLDSBORO",
    "STATE_PROV_CODE": "NC",
    "POSTAL_CODE": 27534,
    "LATITUDE_DGR": 35.383546,
    "LONGITUDE_DGR": -77.937148,
    "flag": 1.079955207,
    "Reg": 12,
    "Market": 7,
    "ty_fresh_sales": 4822,
    "ly_fresh_sales": 4465
  },
  {
    "CLUB_NBR": "6,612",
    "CITY_NAME": "CONCORD",
    "STATE_PROV_CODE": "CA",
    "POSTAL_CODE": 94520,
    "LATITUDE_DGR": 37.982026,
    "LONGITUDE_DGR": -122.055361,
    "flag": 0.670422535,
    "Reg": 19,
    "Market": 15,
    "ty_fresh_sales": 1904,
    "ly_fresh_sales": 2840
  },
  {
    "CLUB_NBR": "6,401",
    "CITY_NAME": "TAMPA",
    "STATE_PROV_CODE": "FL",
    "POSTAL_CODE": 33618,
    "LATITUDE_DGR": 28.096468,
    "LONGITUDE_DGR": -82.5001,
    "flag": 0.83910232,
    "Reg": 1,
    "Market": 12,
    "ty_fresh_sales": 2206,
    "ly_fresh_sales": 2629
  },
  {
    "CLUB_NBR": "6,338",
    "CITY_NAME": "COLLEGE STATION",
    "STATE_PROV_CODE": "TX",
    "POSTAL_CODE": 77845,
    "LATITUDE_DGR": 30.634589,
    "LONGITUDE_DGR": -96.301554,
    "flag": 2.177961108,
    "Reg": 2,
    "Market": 11,
    "ty_fresh_sales": 3696,
    "ly_fresh_sales": 1697
  },
  {
    "CLUB_NBR": "6,337",
    "CITY_NAME": "SEABROOK",
    "STATE_PROV_CODE": "NH",
    "POSTAL_CODE": 3874,
    "LATITUDE_DGR": 42.8933,
    "LONGITUDE_DGR": -70.8863,
    "flag": 1.506990679,
    "Reg": 2,
    "Market": 14,
    "ty_fresh_sales": 4527,
    "ly_fresh_sales": 3004
  },
  {
    "CLUB_NBR": "8,190",
    "CITY_NAME": "LA MARQUE",
    "STATE_PROV_CODE": "TX",
    "POSTAL_CODE": 77568,
    "LATITUDE_DGR": 29.403684,
    "LONGITUDE_DGR": -95.039643,
    "flag": 1.706707317,
    "Reg": 6,
    "Market": 2,
    "ty_fresh_sales": 2799,
    "ly_fresh_sales": 1640
  },
  {
    "CLUB_NBR": "6,324",
    "CITY_NAME": "MILWAUKEE",
    "STATE_PROV_CODE": "WI",
    "POSTAL_CODE": 53223,
    "LATITUDE_DGR": 43.154171,
    "LONGITUDE_DGR": -88.006619,
    "flag": 1.749536178,
    "Reg": 5,
    "Market": 8,
    "ty_fresh_sales": 4715,
    "ly_fresh_sales": 2695
  },
  {
    "CLUB_NBR": "6,319",
    "CITY_NAME": "KENTWOOD",
    "STATE_PROV_CODE": "MI",
    "POSTAL_CODE": 49512,
    "LATITUDE_DGR": 42.912,
    "LONGITUDE_DGR": -85.5618,
    "flag": 0.975015051,
    "Reg": 20,
    "Market": 17,
    "ty_fresh_sales": 3239,
    "ly_fresh_sales": 3322
  },
  {
    "CLUB_NBR": "4,836",
    "CITY_NAME": "OXFORD",
    "STATE_PROV_CODE": "AL",
    "POSTAL_CODE": 36203,
    "LATITUDE_DGR": 33.609324,
    "LONGITUDE_DGR": -85.777414,
    "flag": 0.941586748,
    "Reg": 14,
    "Market": 17,
    "ty_fresh_sales": 2160,
    "ly_fresh_sales": 2294
  },
  {
    "CLUB_NBR": "4,963",
    "CITY_NAME": "CHILLICOTHE",
    "STATE_PROV_CODE": "OH",
    "POSTAL_CODE": 45601,
    "LATITUDE_DGR": 39.361648,
    "LONGITUDE_DGR": -82.978709,
    "flag": 0.532785013,
    "Reg": 12,
    "Market": 3,
    "ty_fresh_sales": 2332,
    "ly_fresh_sales": 4377
  },
  {
    "CLUB_NBR": "4,850",
    "CITY_NAME": "MCALLEN",
    "STATE_PROV_CODE": "TX",
    "POSTAL_CODE": 78504,
    "LATITUDE_DGR": 26.27175,
    "LONGITUDE_DGR": -98.221333,
    "flag": 1.272727273,
    "Reg": 17,
    "Market": 3,
    "ty_fresh_sales": 4018,
    "ly_fresh_sales": 3157
  },
  {
    "CLUB_NBR": "6,330",
    "CITY_NAME": "DOVER",
    "STATE_PROV_CODE": "DE",
    "POSTAL_CODE": 19901,
    "LATITUDE_DGR": 39.192785,
    "LONGITUDE_DGR": -75.553226,
    "flag": 1.799065421,
    "Reg": 17,
    "Market": 2,
    "ty_fresh_sales": 3465,
    "ly_fresh_sales": 1926
  },
  {
    "CLUB_NBR": "4,973",
    "CITY_NAME": "DUBUQUE",
    "STATE_PROV_CODE": "IA",
    "POSTAL_CODE": 52002,
    "LATITUDE_DGR": 42.517686,
    "LONGITUDE_DGR": -90.738256,
    "flag": 0.595557851,
    "Reg": 17,
    "Market": 9,
    "ty_fresh_sales": 1153,
    "ly_fresh_sales": 1936
  },
  {
    "CLUB_NBR": "4,977",
    "CITY_NAME": "PRESCOTT VALLEY",
    "STATE_PROV_CODE": "AZ",
    "POSTAL_CODE": 86314,
    "LATITUDE_DGR": 34.5773,
    "LONGITUDE_DGR": -112.362,
    "flag": 0.473324573,
    "Reg": 1,
    "Market": 15,
    "ty_fresh_sales": 1801,
    "ly_fresh_sales": 3805
  },
  {
    "CLUB_NBR": "8,146",
    "CITY_NAME": "OMAHA",
    "STATE_PROV_CODE": "NE",
    "POSTAL_CODE": 68137,
    "LATITUDE_DGR": 41.21488,
    "LONGITUDE_DGR": -96.117855,
    "flag": 0.258768873,
    "Reg": 2,
    "Market": 4,
    "ty_fresh_sales": 1114,
    "ly_fresh_sales": 4305
  },
  {
    "CLUB_NBR": "6,664",
    "CITY_NAME": "UTICA",
    "STATE_PROV_CODE": "MI",
    "POSTAL_CODE": 48315,
    "LATITUDE_DGR": 42.630938,
    "LONGITUDE_DGR": -83.007845,
    "flag": 0.686937485,
    "Reg": 12,
    "Market": 6,
    "ty_fresh_sales": 2824,
    "ly_fresh_sales": 4111
  },
  {
    "CLUB_NBR": "6,405",
    "CITY_NAME": "YUBA CITY",
    "STATE_PROV_CODE": "CA",
    "POSTAL_CODE": 95993,
    "LATITUDE_DGR": 39.139015,
    "LONGITUDE_DGR": -121.645375,
    "flag": 0.646436666,
    "Reg": 11,
    "Market": 16,
    "ty_fresh_sales": 2567,
    "ly_fresh_sales": 3971
  },
  {
    "CLUB_NBR": "6,679",
    "CITY_NAME": "WEST MIFFLIN",
    "STATE_PROV_CODE": "PA",
    "POSTAL_CODE": 15122,
    "LATITUDE_DGR": 40.343847,
    "LONGITUDE_DGR": -79.949018,
    "flag": 0.500811688,
    "Reg": 19,
    "Market": 8,
    "ty_fresh_sales": 1234,
    "ly_fresh_sales": 2464
  },
  {
    "CLUB_NBR": "8,253",
    "CITY_NAME": "JACKSONVILLE",
    "STATE_PROV_CODE": "FL",
    "POSTAL_CODE": 32218,
    "LATITUDE_DGR": 30.429361,
    "LONGITUDE_DGR": -81.643881,
    "flag": 1.24635143,
    "Reg": 12,
    "Market": 4,
    "ty_fresh_sales": 4270,
    "ly_fresh_sales": 3426
  },
  {
    "CLUB_NBR": "4,806",
    "CITY_NAME": "CAROLINA",
    "STATE_PROV_CODE": "PR",
    "POSTAL_CODE": 987,
    "LATITUDE_DGR": 18.37486,
    "LONGITUDE_DGR": -65.92166,
    "flag": 2.624426606,
    "Reg": 19,
    "Market": 1,
    "ty_fresh_sales": 4577,
    "ly_fresh_sales": 1744
  },
  {
    "CLUB_NBR": "6,225",
    "CITY_NAME": "MAYAGUEZ",
    "STATE_PROV_CODE": "PR",
    "POSTAL_CODE": 680,
    "LATITUDE_DGR": 18.243452,
    "LONGITUDE_DGR": -67.163645,
    "flag": 1.062215478,
    "Reg": 16,
    "Market": 5,
    "ty_fresh_sales": 3500,
    "ly_fresh_sales": 3295
  },
  {
    "CLUB_NBR": "4,109",
    "CITY_NAME": "BOSSIER CITY",
    "STATE_PROV_CODE": "LA",
    "POSTAL_CODE": 71111,
    "LATITUDE_DGR": 32.5637,
    "LONGITUDE_DGR": -93.707012,
    "flag": 2.643494898,
    "Reg": 20,
    "Market": 17,
    "ty_fresh_sales": 4145,
    "ly_fresh_sales": 1568
  },
  {
    "CLUB_NBR": "4,738",
    "CITY_NAME": "EAGAN",
    "STATE_PROV_CODE": "MN",
    "POSTAL_CODE": 55121,
    "LATITUDE_DGR": 44.847753,
    "LONGITUDE_DGR": -93.149776,
    "flag": 0.313785436,
    "Reg": 4,
    "Market": 1,
    "ty_fresh_sales": 1129,
    "ly_fresh_sales": 3598
  },
  {
    "CLUB_NBR": "4,815",
    "CITY_NAME": "NORMAL",
    "STATE_PROV_CODE": "IL",
    "POSTAL_CODE": 61761,
    "LATITUDE_DGR": 40.533615,
    "LONGITUDE_DGR": -88.9511,
    "flag": 4.409883721,
    "Reg": 6,
    "Market": 1,
    "ty_fresh_sales": 4551,
    "ly_fresh_sales": 1032
  },
  {
    "CLUB_NBR": "4,775",
    "CITY_NAME": "METAIRIE",
    "STATE_PROV_CODE": "LA",
    "POSTAL_CODE": 70001,
    "LATITUDE_DGR": 29.973258,
    "LONGITUDE_DGR": -90.170338,
    "flag": 0.521501173,
    "Reg": 7,
    "Market": 6,
    "ty_fresh_sales": 2001,
    "ly_fresh_sales": 3837
  },
  {
    "CLUB_NBR": "6,440",
    "CITY_NAME": "LATHAM",
    "STATE_PROV_CODE": "NY",
    "POSTAL_CODE": 12110,
    "LATITUDE_DGR": 42.758006,
    "LONGITUDE_DGR": -73.762854,
    "flag": 0.647640449,
    "Reg": 17,
    "Market": 12,
    "ty_fresh_sales": 2882,
    "ly_fresh_sales": 4450
  },
  {
    "CLUB_NBR": "4,938",
    "CITY_NAME": "ALBUQUERQUE",
    "STATE_PROV_CODE": "NM",
    "POSTAL_CODE": 87107,
    "LATITUDE_DGR": 35.13824,
    "LONGITUDE_DGR": -106.613193,
    "flag": 1.053807947,
    "Reg": 8,
    "Market": 20,
    "ty_fresh_sales": 3819,
    "ly_fresh_sales": 3624
  },
  {
    "CLUB_NBR": "6,693",
    "CITY_NAME": "LANGHORNE",
    "STATE_PROV_CODE": "PA",
    "POSTAL_CODE": 19047,
    "LATITUDE_DGR": 40.171828,
    "LONGITUDE_DGR": -74.886659,
    "flag": 0.553628602,
    "Reg": 15,
    "Market": 20,
    "ty_fresh_sales": 2075,
    "ly_fresh_sales": 3748
  },
  {
    "CLUB_NBR": "6,634",
    "CITY_NAME": "LONE TREE",
    "STATE_PROV_CODE": "CO",
    "POSTAL_CODE": 80124,
    "LATITUDE_DGR": 39.562567,
    "LONGITUDE_DGR": -104.901079,
    "flag": 1.003331625,
    "Reg": 11,
    "Market": 17,
    "ty_fresh_sales": 3915,
    "ly_fresh_sales": 3902
  },
  {
    "CLUB_NBR": "6,355",
    "CITY_NAME": "HICKORY",
    "STATE_PROV_CODE": "NC",
    "POSTAL_CODE": 28602,
    "LATITUDE_DGR": 35.703875,
    "LONGITUDE_DGR": -81.28977,
    "flag": 0.513176144,
    "Reg": 11,
    "Market": 8,
    "ty_fresh_sales": 1110,
    "ly_fresh_sales": 2163
  },
  {
    "CLUB_NBR": "4,948",
    "CITY_NAME": "SAN ANGELO",
    "STATE_PROV_CODE": "TX",
    "POSTAL_CODE": 76901,
    "LATITUDE_DGR": 31.424244,
    "LONGITUDE_DGR": -100.512947,
    "flag": 3.370508982,
    "Reg": 13,
    "Market": 1,
    "ty_fresh_sales": 4503,
    "ly_fresh_sales": 1336
  },
  {
    "CLUB_NBR": "6,361",
    "CITY_NAME": "FORT WALTON BEACH",
    "STATE_PROV_CODE": "FL",
    "POSTAL_CODE": 32547,
    "LATITUDE_DGR": 30.439507,
    "LONGITUDE_DGR": -86.641223,
    "flag": 0.735034803,
    "Reg": 13,
    "Market": 3,
    "ty_fresh_sales": 3168,
    "ly_fresh_sales": 4310
  },
  {
    "CLUB_NBR": "4,799",
    "CITY_NAME": "CITRUS HEIGHTS",
    "STATE_PROV_CODE": "CA",
    "POSTAL_CODE": 95621,
    "LATITUDE_DGR": 38.68031,
    "LONGITUDE_DGR": -121.295989,
    "flag": 0.736149373,
    "Reg": 12,
    "Market": 4,
    "ty_fresh_sales": 2405,
    "ly_fresh_sales": 3267
  },
  {
    "CLUB_NBR": "6,678",
    "CITY_NAME": "PITTSBURGH",
    "STATE_PROV_CODE": "PA",
    "POSTAL_CODE": 15237,
    "LATITUDE_DGR": 40.535363,
    "LONGITUDE_DGR": -80.067548,
    "flag": 2.357366771,
    "Reg": 12,
    "Market": 17,
    "ty_fresh_sales": 4512,
    "ly_fresh_sales": 1914
  },
  {
    "CLUB_NBR": "4,770",
    "CITY_NAME": "EVANS",
    "STATE_PROV_CODE": "CO",
    "POSTAL_CODE": 80620,
    "LATITUDE_DGR": 40.3848,
    "LONGITUDE_DGR": -104.716,
    "flag": 1.750528541,
    "Reg": 10,
    "Market": 1,
    "ty_fresh_sales": 4140,
    "ly_fresh_sales": 2365
  },
  {
    "CLUB_NBR": "8,133",
    "CITY_NAME": "FLORENCE",
    "STATE_PROV_CODE": "KY",
    "POSTAL_CODE": 41042,
    "LATITUDE_DGR": 39.016299,
    "LONGITUDE_DGR": -84.639164,
    "flag": 1.141971831,
    "Reg": 18,
    "Market": 5,
    "ty_fresh_sales": 4054,
    "ly_fresh_sales": 3550
  },
  {
    "CLUB_NBR": "8,129",
    "CITY_NAME": "WILMINGTON",
    "STATE_PROV_CODE": "NC",
    "POSTAL_CODE": 28403,
    "LATITUDE_DGR": 34.23358,
    "LONGITUDE_DGR": -77.878038,
    "flag": 1.043267438,
    "Reg": 2,
    "Market": 15,
    "ty_fresh_sales": 2797,
    "ly_fresh_sales": 2681
  },
  {
    "CLUB_NBR": "6,633",
    "CITY_NAME": "FORT COLLINS",
    "STATE_PROV_CODE": "CO",
    "POSTAL_CODE": 80525,
    "LATITUDE_DGR": 40.521149,
    "LONGITUDE_DGR": -105.063852,
    "flag": 0.519889841,
    "Reg": 1,
    "Market": 19,
    "ty_fresh_sales": 1699,
    "ly_fresh_sales": 3268
  },
  {
    "CLUB_NBR": "4,712",
    "CITY_NAME": "HOUSTON",
    "STATE_PROV_CODE": "TX",
    "POSTAL_CODE": 77043,
    "LATITUDE_DGR": 29.788224,
    "LONGITUDE_DGR": -95.555096,
    "flag": 0.257441673,
    "Reg": 8,
    "Market": 4,
    "ty_fresh_sales": 1280,
    "ly_fresh_sales": 4972
  },
  {
    "CLUB_NBR": "6,424",
    "CITY_NAME": "KOKOMO",
    "STATE_PROV_CODE": "IN",
    "POSTAL_CODE": 46901,
    "LATITUDE_DGR": 40.475319,
    "LONGITUDE_DGR": -86.105945,
    "flag": 1.397714286,
    "Reg": 17,
    "Market": 6,
    "ty_fresh_sales": 3669,
    "ly_fresh_sales": 2625
  },
  {
    "CLUB_NBR": "6,236",
    "CITY_NAME": "ROCK HILL",
    "STATE_PROV_CODE": "SC",
    "POSTAL_CODE": 29730,
    "LATITUDE_DGR": 34.938641,
    "LONGITUDE_DGR": -80.958451,
    "flag": 1.73552822,
    "Reg": 9,
    "Market": 19,
    "ty_fresh_sales": 4797,
    "ly_fresh_sales": 2764
  },
  {
    "CLUB_NBR": "6,642",
    "CITY_NAME": "TAMPA",
    "STATE_PROV_CODE": "FL",
    "POSTAL_CODE": 33611,
    "LATITUDE_DGR": 27.893299,
    "LONGITUDE_DGR": -82.506651,
    "flag": 0.548086867,
    "Reg": 5,
    "Market": 20,
    "ty_fresh_sales": 1590,
    "ly_fresh_sales": 2901
  },
  {
    "CLUB_NBR": "4,044",
    "CITY_NAME": "WORCESTER",
    "STATE_PROV_CODE": "MA",
    "POSTAL_CODE": 1607,
    "LATITUDE_DGR": 42.293991,
    "LONGITUDE_DGR": -71.797756,
    "flag": 0.399796334,
    "Reg": 14,
    "Market": 13,
    "ty_fresh_sales": 1963,
    "ly_fresh_sales": 4910
  },
  {
    "CLUB_NBR": "4,758",
    "CITY_NAME": "CLEVELAND",
    "STATE_PROV_CODE": "TN",
    "POSTAL_CODE": 37311,
    "LATITUDE_DGR": 0,
    "LONGITUDE_DGR": 0,
    "flag": 0.68734388,
    "Reg": 18,
    "Market": 13,
    "ty_fresh_sales": 1651,
    "ly_fresh_sales": 2402
  },
  {
    "CLUB_NBR": "4,787",
    "CITY_NAME": "BLOOMINGTON",
    "STATE_PROV_CODE": "MN",
    "POSTAL_CODE": 55420,
    "LATITUDE_DGR": 44.8551,
    "LONGITUDE_DGR": -93.2882,
    "flag": 0.529978254,
    "Reg": 3,
    "Market": 4,
    "ty_fresh_sales": 1706,
    "ly_fresh_sales": 3219
  },
  {
    "CLUB_NBR": "6,687",
    "CITY_NAME": "SEATTLE",
    "STATE_PROV_CODE": "WA",
    "POSTAL_CODE": 98133,
    "LATITUDE_DGR": 47.7279,
    "LONGITUDE_DGR": -122.342,
    "flag": 0.575989209,
    "Reg": 15,
    "Market": 2,
    "ty_fresh_sales": 2562,
    "ly_fresh_sales": 4448
  }
]
